[{"CCSDS_OMM_VERS":"3.0","COMMENT":"GENERATED VIA SPACE-TRACK.ORG API","CREATION_DATE":"2026-03-28T04:18:04","ORIGINATOR":"18 SPCS","OBJECT_NAME":"FENGYUN 1C DEB","OBJECT_ID":"1999-025CVD","CENTER_NAME":"EARTH","REF_FRAME":"TEME","TIME_SYSTEM":"UTC","MEAN_ELEMENT_THEORY":"SGP4","EPOCH":"2026-03-27T16:36:05.211936","MEAN_MOTION":"14.39893941","ECCENTRICITY":"0.00839504","INCLINATION":"99.8701","RA_OF_ASC_NODE":"66.3441","ARG_OF_PERICENTER":"196.3936","MEAN_ANOMALY":"338.6092","EPHEMERIS_TYPE":"0","CLASSIFICATION_TYPE":"U","NORAD_CAT_ID":"32207","ELEMENT_SET_NO":"999","REV_AT_EPOCH":"65817","BSTAR":"0.00025902464000","MEAN_MOTION_DOT":"0.00000790","MEAN_MOTION_DDOT":"0.0000000000000","SEMIMAJOR_AXIS":"7136.986","PERIOD":"100.007","APOAPSIS":"818.766","PERIAPSIS":"698.936","OBJECT_TYPE":"DEBRIS","RCS_SIZE":"SMALL","COUNTRY_CODE":"PRC","LAUNCH_DATE":"1999-05-10","SITE":"TSC","DECAY_DATE":null,"FILE":"5102610","GP_ID":"317342104","TLE_LINE0":"0 FENGYUN 1C DEB","TLE_LINE1":"1 32207U 99025CVD 26086.69172699  .00000790  00000-0  25902-3 0  9997","TLE_LINE2":"2 32207  99.8701  66.3441 0083950 196.3936 338.6092 14.39893941658175"},{"CCSDS_OMM_VERS":"3.0","COMMENT":"GENERATED VIA SPACE-TRACK.ORG API","CREATION_DATE":"2021-11-05T05:05:33","ORIGINATOR":"18 SPCS","OBJECT_NAME":"FENGYUN 1C DEB","OBJECT_ID":"1999-025CVE","CENTER_NAME":"EARTH","REF_FRAME":"TEME","TIME_SYSTEM":"UTC","MEAN_ELEMENT_THEORY":"SGP4","EPOCH":"2021-11-04T19:41:42.330048","MEAN_MOTION":"14.73114883","ECCENTRICITY":"0.00324770","INCLINATION":"98.9470","RA_OF_ASC_NODE":"311.8330","ARG_OF_PERICENTER":"55.6252","MEAN_ANOMALY":"304.8017","EPHEMERIS_TYPE":"0","CLASSIFICATION_TYPE":"U","NORAD_CAT_ID":"32208","ELEMENT_SET_NO":"999","REV_AT_EPOCH":"75518","BSTAR":"0.01485100000000","MEAN_MOTION_DOT":"0.00097736","MEAN_MOTION_DDOT":"0.0000000000000","SEMIMAJOR_AXIS":"7029.279","PERIOD":"97.752","APOAPSIS":"673.973","PERIAPSIS":"628.315","OBJECT_TYPE":"DEBRIS","RCS_SIZE":"SMALL","COUNTRY_CODE":"PRC","LAUNCH_DATE":"1999-05-10","SITE":"TSC","DECAY_DATE":"2022-07-19","FILE":"3202404","GP_ID":"188944311","TLE_LINE0":"0 FENGYUN 1C DEB","TLE_LINE1":"1 32208U 99025CVE 21308.82062882  .00097736  00000-0  14851-1 0  9992","TLE_LINE2":"2 32208  98.9470 311.8330 0032477  55.6252 304.8017 14.73114883755180"},{"CCSDS_OMM_VERS":"3.0","COMMENT":"GENERATED VIA SPACE-TRACK.ORG API","CREATION_DATE":"2026-03-26T10:28:28","ORIGINATOR":"18 SPCS","OBJECT_NAME":"FENGYUN 1C DEB","OBJECT_ID":"1999-025CVF","CENTER_NAME":"EARTH","REF_FRAME":"TEME","TIME_SYSTEM":"UTC","MEAN_ELEMENT_THEORY":"SGP4","EPOCH":"2026-03-26T02:40:33.768480","MEAN_MOTION":"13.47500233","ECCENTRICITY":"0.03298214","INCLINATION":"99.4272","RA_OF_ASC_NODE":"31.7156","ARG_OF_PERICENTER":"126.8162","MEAN_ANOMALY":"236.3713","EPHEMERIS_TYPE":"0","CLASSIFICATION_TYPE":"U","NORAD_CAT_ID":"32209","ELEMENT_SET_NO":"999","REV_AT_EPOCH":"91368","BSTAR":"0.00175760980000","MEAN_MOTION_DOT":"0.00001460","MEAN_MOTION_DDOT":"0.0000000000000","SEMIMAJOR_AXIS":"7459.607","PERIOD":"106.865","APOAPSIS":"1327.506","PERIAPSIS":"835.438","OBJECT_TYPE":"DEBRIS","RCS_SIZE":"SMALL","COUNTRY_CODE":"PRC","LAUNCH_DATE":"1999-05-10","SITE":"TSC","DECAY_DATE":null,"FILE":"5098523","GP_ID":"317113974","TLE_LINE0":"0 FENGYUN 1C DEB","TLE_LINE1":"1 32209U 99025CVF 26085.11150195  .00001460  00000-0  17576-2 0  9994","TLE_LINE2":"2 32209  99.4272  31.7156 0329821 126.8162 236.3713 13.47500233913685"},{"CCSDS_OMM_VERS":"3.0","COMMENT":"GENERATED VIA SPACE-TRACK.ORG API","CREATION_DATE":"2025-04-09T17:06:23","ORIGINATOR":"18 SPCS","OBJECT_NAME":"FENGYUN 1C DEB","OBJECT_ID":"1999-025CVG","CENTER_NAME":"EARTH","REF_FRAME":"TEME","TIME_SYSTEM":"UTC","MEAN_ELEMENT_THEORY":"SGP4","EPOCH":"2024-04-22T21:49:54.375168","MEAN_MOTION":"14.07258874","ECCENTRICITY":"0.00717250","INCLINATION":"98.9251","RA_OF_ASC_NODE":"163.3353","ARG_OF_PERICENTER":"58.8851","MEAN_ANOMALY":"301.9328","EPHEMERIS_TYPE":"0","CLASSIFICATION_TYPE":"U","NORAD_CAT_ID":"32210","ELEMENT_SET_NO":"999","REV_AT_EPOCH":"85628","BSTAR":"0.00319000000000","MEAN_MOTION_DOT":"0.00005438","MEAN_MOTION_DDOT":"0.0000000000000","SEMIMAJOR_AXIS":"7246.904","PERIOD":"102.327","APOAPSIS":"920.747","PERIAPSIS":"816.791","OBJECT_TYPE":"DEBRIS","RCS_SIZE":"SMALL","COUNTRY_CODE":"PRC","LAUNCH_DATE":"1999-05-10","SITE":"TSC","DECAY_DATE":null,"FILE":"4696077","GP_ID":"285194213","TLE_LINE0":"0 FENGYUN 1C DEB","TLE_LINE1":"1 32210U 99025CVG 24113.90965712  .00005438  00000-0  31900-2 0  9998","TLE_LINE2":"2 32210  98.9251 163.3353 0071725  58.8851 301.9328 14.07258874856286"},{"CCSDS_OMM_VERS":"3.0","COMMENT":"GENERATED VIA SPACE-TRACK.ORG API","CREATION_DATE":"2025-04-09T17:06:23","ORIGINATOR":"18 SPCS","OBJECT_NAME":"FENGYUN 1C DEB","OBJECT_ID":"1999-025CVH","CENTER_NAME":"EARTH","REF_FRAME":"TEME","TIME_SYSTEM":"UTC","MEAN_ELEMENT_THEORY":"SGP4","EPOCH":"2020-12-25T05:14:04.254720","MEAN_MOTION":"13.93229026","ECCENTRICITY":"0.01352820","INCLINATION":"98.5751","RA_OF_ASC_NODE":"3.5542","ARG_OF_PERICENTER":"269.9288","MEAN_ANOMALY":"150.8894","EPHEMERIS_TYPE":"0","CLASSIFICATION_TYPE":"U","NORAD_CAT_ID":"32211","ELEMENT_SET_NO":"999","REV_AT_EPOCH":"67815","BSTAR":"0.00056851000000","MEAN_MOTION_DOT":"0.00000759","MEAN_MOTION_DDOT":"0.0000000000000","SEMIMAJOR_AXIS":"7295.474","PERIOD":"103.357","APOAPSIS":"1016.033","PERIAPSIS":"818.644","OBJECT_TYPE":"DEBRIS","RCS_SIZE":"SMALL","COUNTRY_CODE":"PRC","LAUNCH_DATE":"1999-05-10","SITE":"TSC","DECAY_DATE":null,"FILE":"4695877","GP_ID":"285185759","TLE_LINE0":"0 FENGYUN 1C DEB","TLE_LINE1":"1 32211U 99025CVH 20360.21810480  .00000759  00000-0  56851-3 0  9998","TLE_LINE2":"2 32211  98.5751   3.5542 0135282 269.9288 150.8894 13.93229026678159"},{"CCSDS_OMM_VERS":"3.0","COMMENT":"GENERATED VIA SPACE-TRACK.ORG API","CREATION_DATE":"2026-03-26T15:56:34","ORIGINATOR":"18 SPCS","OBJECT_NAME":"FENGYUN 1C DEB","OBJECT_ID":"1999-025CVJ","CENTER_NAME":"EARTH","REF_FRAME":"TEME","TIME_SYSTEM":"UTC","MEAN_ELEMENT_THEORY":"SGP4","EPOCH":"2026-03-26T06:37:23.397600","MEAN_MOTION":"14.40751699","ECCENTRICITY":"0.01374630","INCLINATION":"99.5710","RA_OF_ASC_NODE":"199.1884","ARG_OF_PERICENTER":"137.9258","MEAN_ANOMALY":"251.9999","EPHEMERIS_TYPE":"0","CLASSIFICATION_TYPE":"U","NORAD_CAT_ID":"32212","ELEMENT_SET_NO":"999","REV_AT_EPOCH":"97552","BSTAR":"0.00057204000000","MEAN_MOTION_DOT":"0.00001988","MEAN_MOTION_DDOT":"0.0000000000000","SEMIMAJOR_AXIS":"7134.153","PERIOD":"99.948","APOAPSIS":"854.086","PERIAPSIS":"657.950","OBJECT_TYPE":"DEBRIS","RCS_SIZE":"SMALL","COUNTRY_CODE":"PRC","LAUNCH_DATE":"1999-05-10","SITE":"TSC","DECAY_DATE":null,"FILE":"5099351","GP_ID":"317156986","TLE_LINE0":"0 FENGYUN 1C DEB","TLE_LINE1":"1 32212U 99025CVJ 26085.27596525  .00001988  00000-0  57204-3 0  9994","TLE_LINE2":"2 32212  99.5710 199.1884 0137463 137.9258 251.9999 14.40751699975520"},{"CCSDS_OMM_VERS":"3.0","COMMENT":"GENERATED VIA SPACE-TRACK.ORG API","CREATION_DATE":"2025-04-09T17:06:23","ORIGINATOR":"18 SPCS","OBJECT_NAME":"FENGYUN 1C DEB","OBJECT_ID":"1999-025CVK","CENTER_NAME":"EARTH","REF_FRAME":"TEME","TIME_SYSTEM":"UTC","MEAN_ELEMENT_THEORY":"SGP4","EPOCH":"2014-08-25T06:43:44.150304","MEAN_MOTION":"13.97395558","ECCENTRICITY":"0.01815170","INCLINATION":"99.2064","RA_OF_ASC_NODE":"248.1045","ARG_OF_PERICENTER":"28.4296","MEAN_ANOMALY":"332.6626","EPHEMERIS_TYPE":"0","CLASSIFICATION_TYPE":"U","NORAD_CAT_ID":"32213","ELEMENT_SET_NO":"999","REV_AT_EPOCH":"36100","BSTAR":"0.00024783000000","MEAN_MOTION_DOT":"0.00000355","MEAN_MOTION_DDOT":"0.0000000000000","SEMIMAJOR_AXIS":"7280.965","PERIOD":"103.049","APOAPSIS":"1034.992","PERIAPSIS":"770.668","OBJECT_TYPE":"DEBRIS","RCS_SIZE":"SMALL","COUNTRY_CODE":"PRC","LAUNCH_DATE":"1999-05-10","SITE":"TSC","DECAY_DATE":null,"FILE":"4695878","GP_ID":"285194240","TLE_LINE0":"0 FENGYUN 1C DEB","TLE_LINE1":"1 32213U 99025CVK 14237.28037211  .00000355  00000-0  24783-3 0  9997","TLE_LINE2":"2 32213  99.2064 248.1045 0181517  28.4296 332.6626 13.97395558361004"},{"CCSDS_OMM_VERS":"3.0","COMMENT":"GENERATED VIA SPACE-TRACK.ORG API","CREATION_DATE":"2026-03-28T17:16:31","ORIGINATOR":"18 SPCS","OBJECT_NAME":"FENGYUN 1C DEB","OBJECT_ID":"1999-025CVL","CENTER_NAME":"EARTH","REF_FRAME":"TEME","TIME_SYSTEM":"UTC","MEAN_ELEMENT_THEORY":"SGP4","EPOCH":"2026-03-28T07:52:21.525024","MEAN_MOTION":"13.91580479","ECCENTRICITY":"0.01920110","INCLINATION":"99.0327","RA_OF_ASC_NODE":"115.2249","ARG_OF_PERICENTER":"113.7372","MEAN_ANOMALY":"266.4702","EPHEMERIS_TYPE":"0","CLASSIFICATION_TYPE":"U","NORAD_CAT_ID":"32214","ELEMENT_SET_NO":"999","REV_AT_EPOCH":"63890","BSTAR":"0.00276680000000","MEAN_MOTION_DOT":"0.00004035","MEAN_MOTION_DDOT":"0.0000000000000","SEMIMAJOR_AXIS":"7301.234","PERIOD":"103.479","APOAPSIS":"1063.291","PERIAPSIS":"782.908","OBJECT_TYPE":"DEBRIS","RCS_SIZE":"SMALL","COUNTRY_CODE":"PRC","LAUNCH_DATE":"1999-05-10","SITE":"TSC","DECAY_DATE":null,"FILE":"5104354","GP_ID":"317439948","TLE_LINE0":"0 FENGYUN 1C DEB","TLE_LINE1":"1 32214U 99025CVL 26087.32802691  .00004035  00000-0  27668-2 0  9994","TLE_LINE2":"2 32214  99.0327 115.2249 0192011 113.7372 266.4702 13.91580479638906"}]